stk.v.4.3 

BEGIN Ephemeris 
 
NumberOfEphemerisPoints		146 
ScenarioEpoch	    1 Sep 2020 13:21:14.097038806 
InterpolationMethod		Lagrange 
InterpolationOrder		5 
CentralBody				Earth 
CoordinateSystem			TEME 
CoordinateSystemEpoch	  1 Sep 2020 13:21:14.097038806 
DistanceUnit			Kilometers 
 
EphemerisTimePosVel 
 
       0.00000000   -2189.13692164    6798.25271713       0.03699011 -0.443647569 -0.154392712  7.457556323
 END Ephemeris 
